BEIDOU-2 IGSO-1 (C06)   
1 36828U 10036A   26132.68902604 -.00000041  00000+0  00000+0 0  9990
2 36828  54.2951 163.2807 0058856 224.5644 197.8413  1.00282752 57744
BEIDOU-2 G4 (C04)       
1 37210U 10057A   26132.63942725 -.00000098  00000+0  00000+0 0  9994
2 37210   3.5584  69.1415 0005528 211.1821 340.2622  1.00272777 56937
BEIDOU-2 IGSO-2 (C07)   
1 37256U 10068A   26131.68069234 -.00000217  00000+0  00000+0 0  9998
2 37256  47.6185 272.2854 0053911 212.0964  96.0853  1.00295576 56422
BEIDOU-2 IGSO-3 (C08)   
1 37384U 11013A   26131.75395624 -.00000196  00000+0  00000+0 0  9990
2 37384  62.3600  40.4988 0034014 186.6429  22.0878  1.00277207 55299
BEIDOU-2 IGSO-4 (C09)   
1 37763U 11038A   26132.55512303  .00000071  00000+0  00000+0 0  9993
2 37763  54.5847 165.9879 0158048 233.0606 122.6137  1.00291444 54288
BEIDOU-2 IGSO-5 (C10)   
1 37948U 11073A   26132.85927854 -.00000169  00000+0  00000+0 0  9990
2 37948  47.7459 271.9821 0111748 220.6492 139.9952  1.00256739 52789
BEIDOU-2 G5 (C05)       
1 38091U 12008A   26132.83321652  .00000072  00000+0  00000+0 0  9993
2 38091   3.4853  69.8951 0011104 271.7864 247.5507  1.00271630 52014
BEIDOU-2 M3 (C11)       
1 38250U 12018A   26132.21251275 -.00000038  00000+0  00000+0 0  9999
2 38250  55.7895 306.0876 0019772 276.8668  82.9033  1.86230132 95272
BEIDOU-2 M4 (C12)       
1 38251U 12018B   26128.92300840 -.00000036  00000+0  00000+0 0  9994
2 38251  55.6931 305.4151 0010883 282.3733  77.4996  1.86229854 95211
BEIDOU-2 M6 (C14)       
1 38775U 12050B   26131.31765641 -.00000024  00000+0  00000+0 0  9999
2 38775  56.5136  64.1133 0014350 351.0924   8.8698  1.86230920 92622
BEIDOU-2 G6 (C02)       
1 38953U 12059A   26132.83824319 -.00000161  00000+0  00000+0 0  9994
2 38953   4.3317  73.8886 0010601 320.6702 221.8918  1.00272365 49556
BEIDOU-3S IGSO-1S (C31) 
1 40549U 15019A   26132.41271808 -.00000171  00000+0  00000+0 0  9991
2 40549  49.2649 295.8917 0037646 190.2625 346.7594  1.00258094 40719
BEIDOU-3S M2S (C58)     
1 40748U 15037A   26131.27381031 -.00000037  00000+0  00000+0 0  9996
2 40748  54.9054 303.3168 0007465 268.0236  91.8843  1.86232381 73439
BEIDOU-3S M1S (C57)     
1 40749U 15037B   26132.02261529 -.00000039  00000+0  00000+0 0  9992
2 40749  54.9005 303.2786 0004166  55.6265 304.4052  1.86254900 73456
BEIDOU-3S IGSO-2S (C56) 
1 40938U 15053A   26131.83149812 -.00000165  00000+0  00000+0 0  9998
2 40938  49.2811 259.2153 0064022 190.8147 175.4917  1.00268034 38999
BEIDOU-2 IGSO-6 (C13)   
1 41434U 16021A   26132.69800534 -.00000168  00000+0  00000+0 0  9999
2 41434  60.1782  38.3945 0057377 232.3648 305.6209  1.00265576 37121
BEIDOU-2 G7 (C03)       
1 41586U 16037A   26132.84352990 -.00000340  00000+0  00000+0 0  9991
2 41586   1.6321  68.9771 0007658 358.4043 217.4855  1.00270333  6535
BEIDOU-3 M1 (C19)       
1 43001U 17069A   26132.15694789 -.00000027  00000+0  00000+0 0  9992
2 43001  56.6617  64.2720 0011650 320.2115  39.6888  1.86231352 57936
BEIDOU-3 M2 (C20)       
1 43002U 17069B   26131.02189088 -.00000022  00000+0  00000+0 0  9994
2 43002  56.6651  64.3454 0009686  17.2758 342.7452  1.86231163 57904
BEIDOU-3 M7 (C27)       
1 43107U 18003A   26131.83723402 -.00000040  00000+0  00000+0 0  9992
2 43107  54.3617 303.5824 0005213  84.7412 275.3112  1.86228311 56672
BEIDOU-3 M8 (C28)       
1 43108U 18003B   26132.31952032 -.00000041  00000+0  00000+0 0  9991
2 43108  54.3542 303.5475 0002169 278.1299  81.8371  1.86231243 56698
BEIDOU-3 M4 (C22)       
1 43207U 18018A   26132.22522381 -.00000027  00000+0  00000+0 0  9991
2 43207  56.6208  64.3349 0007758   6.5048 353.4905  1.86231343 56072
BEIDOU-3 M3 (C21)       
1 43208U 18018B   26131.21777272 -.00000022  00000+0  00000+0 0  9996
2 43208  56.6194  64.3718 0009642 332.4369  27.4998  1.86231284 56050
BEIDOU-3 M9 (C29)       
1 43245U 18029A   26132.50933655 -.00000042  00000+0  00000+0 0  9993
2 43245  54.2280 301.1966 0000809 100.6127 259.3848  1.86228370 55232
BEIDOU-3 M10 (C30)      
1 43246U 18029B   26132.44387913 -.00000042  00000+0  00000+0 0  9997
2 43246  54.2256 301.2252 0004611  36.4559 323.5641  1.86229416 55210
BEIDOU-2 IGSO-7 (C16)   
1 43539U 18057A   26130.51871762 -.00000011  00000+0  00000+0 0  9995
2 43539  55.1875 163.3876 0104003 237.7354 126.1724  1.00262765 28754
BEIDOU-3 M5 (C23)       
1 43581U 18062A   26132.13113073  .00000077  00000+0  00000+0 0  9993
2 43581  54.0834 183.5303 0004814 287.8378  72.1926  1.86229005 52962
BEIDOU-3 M6 (C24)       
1 43582U 18062B   26129.30962619  .00000044  00000+0  00000+0 0  9991
2 43582  54.0831 183.6153 0004808  18.9796 341.1148  1.86227992 52917
BEIDOU-3 M12 (C26)      
1 43602U 18067A   26129.24802271  .00000046  00000+0  00000+0 0  9991
2 43602  54.1783 182.3610 0007840  32.7480 327.3771  1.86227965 52394
BEIDOU-3 M11 (C25)      
1 43603U 18067B   26132.06777900  .00000079  00000+0  00000+0 0  9992
2 43603  54.1757 182.2292 0004423  17.5437 342.5545  1.86227440 52473
BEIDOU-3 M13 (C32)      
1 43622U 18072A   26132.02281462 -.00000027  00000+0  00000+0 0  9992
2 43622  56.5943  63.8530 0008368 321.3258  38.6007  1.86231523 51983
BEIDOU-3 M14 (C33)      
1 43623U 18072B   26131.88825295 -.00000026  00000+0  00000+0 0  9993
2 43623  56.5962  63.8514 0006663 345.9990  13.9692  1.86231557 51970
BEIDOU-3 M16 (C35)      
1 43647U 18078A   26132.58110639 -.00000042  00000+0  00000+0 0  9990
2 43647  54.1235 301.2337 0007886  39.7356 320.3104  1.86232294 51496
BEIDOU-3 M15 (C34)      
1 43648U 18078B   26131.09956331 -.00000038  00000+0  00000+0 0  9998
2 43648  54.1206 301.2863 0005058  51.6286 308.4083  1.86232622 51480
BEIDOU-3 G1 (C59)       
1 43683U 18085A   26132.69963081 -.00000093  00000+0  00000+0 0  9993
2 43683   2.9838  98.3087 0007602 339.0183 204.9989  1.00272848 27702
BEIDOU-3 M17 (C36)      
1 43706U 18093A   26131.35359073  .00000068  00000+0  00000+0 0  9991
2 43706  54.1670 183.5464 0009480 290.8488 131.5748  1.86228417 50852
BEIDOU-3 M18 (C37)      
1 43707U 18093B   26131.66046264  .00000072  00000+0  00000+0 0  9996
2 43707  54.1678 183.5281 0007382 321.8365  38.1924  1.86226872 50857
BEIDOU-3 IGSO-1 (C38)   
1 44204U 19023A   26131.75131156 -.00000223  00000+0  00000+0 0  9997
2 44204  58.6454  38.0276 0023914 234.3447 343.0032  1.00250952  6847
BEIDOU-2 G8 (C01)       
1 44231U 19027A   26132.85028993 -.00000233  00000+0  00000+0 0  9998
2 44231   1.5679  74.4178 0010901 282.0430 324.7932  1.00273496 25723
BEIDOU-3 IGSO-2 (C39)   
1 44337U 19035A   26132.65390358 -.00000046  00000+0  00000+0 0  9991
2 44337  55.2385 159.1745 0039680 215.7907 210.7620  1.00277740 25317
BEIDOU-3 M24 (C46)      
1 44542U 19061A   26132.26653437  .00000079  00000+0  00000+0 0  9990
2 44542  54.3947 183.9396 0008069   3.0711 357.0175  1.86229288 45123
BEIDOU-3 M23 (C45)      
1 44543U 19061B   26131.34946017  .00000067  00000+0  00000+0 0  9995
2 44543  54.3931 183.9390 0005138 344.4737  32.5944  1.86227672 45118
BEIDOU-3 IGSO-3 (C40)   
1 44709U 19073A   26120.85038409 -.00000212  00000+0  00000+0 0  9996
2 44709  54.8842 281.4069 0042404 188.8195 170.9972  1.00251230 23982
BEIDOU-3 M22 (C44)      
1 44793U 19078A   26132.64278530 -.00000043  00000+0  00000+0 0  9997
2 44793  53.9697 301.0781 0007167  47.4275 312.6208  1.86227506 43981
BEIDOU-3 M21 (C43)      
1 44794U 19078B   26130.09800295 -.00000037  00000+0  00000+0 0  9997
2 44794  53.9450 301.1295 0004992  44.9662 315.0658  1.86228028 43947
BEIDOU-3 M19 (C41)      
1 44864U 19090A   26128.49025716 -.00000021  00000+0  00000+0 0  9990
2 44864  56.5258  64.1028 0019338 296.1784 262.9647  1.86231851 43492
BEIDOU-3 M20 (C42)      
1 44865U 19090B   26132.62828494 -.00000030  00000+0  00000+0 0  9995
2 44865  56.5307  64.0010 0016968 309.0704 234.0077  1.86231636 43555
BEIDOU-3 G2 (C60)       
1 45344U 20017A   26132.83746321 -.00000127  00000+0  00000+0 0  9997
2 45344   2.7930  46.7784 0002675   9.5992 195.7653  1.00272839 22904
BEIDOU-3 G3 (C61)       
1 45807U 20040A   26132.84352990 -.00000340  00000+0  00000+0 0  9990
2 45807   2.3602  67.3467 0003397 334.0020 243.4584  1.00275719 21719
BEIDOU-3 G4 (C62)       
1 56564U 23066A   26132.84933660 -.00000271  00000+0  00000+0 0  9995
2 56564   0.5339 323.0529 0003499 160.9680 192.3281  1.00266219 11035
BEIDOU-3 M28 (C50)      
1 58654U 23207A   26132.32302171 -.00000030  00000+0  00000+0 0  9997
2 58654  55.7225  63.5128 0004245 330.2096  29.7521  1.86229701 16176
BEIDOU-3 M26 (C48)      
1 58655U 23207B   26132.12051808 -.00000029  00000+0  00000+0 0  9992
2 58655  55.7245  63.5061 0004481 309.5108  50.4360  1.86229680 16156
BEIDOU-3 M25 (C47)      
1 61186U 24168B   26132.49273970 -.00000042  00000+0  00000+0 0  9993
2 61186  54.5066 303.4829 0003136 313.6344  53.1046  1.86230066 11122
BEIDOU-3 M27 (C49)      
1 61187U 24168C   26132.54827634 -.00000042  00000+0  00000+0 0  9992
2 61187  54.5022 303.4639 0002261  42.9513 136.0404  1.86230155  8597
